BANDWAGON-2 OBJECT D    
1 62380U 24247D   26068.52261193  .00011259  00000+0  40119-3 0  9994
2 62380  44.9954 115.6710 0003488 351.1453   8.9368 15.29076102 67732
STARLINK-35827          
1 66365U 25254T   26068.73705167  .00046022  00000+0  15562-2 0  9996
2 66365  53.1579 232.1795 0000911  69.8940 290.2159 15.30204167 18987
